[{"OBJECT_NAME":"TIANMU-1 16","OBJECT_ID":"2024-004B","EPOCH":"2026-03-09T23:11:35.492064","MEAN_MOTION":15.25874833,"ECCENTRICITY":0.00051977,"INCLINATION":97.4617,"RA_OF_ASC_NODE":254.5267,"ARG_OF_PERICENTER":355.4475,"MEAN_ANOMALY":4.6715,"EPHEMERIS_TYPE":0,"CLASSIFICATION_TYPE":"U","NORAD_CAT_ID":58701,"ELEMENT_SET_NO":999,"REV_AT_EPOCH":12064,"BSTAR":0.00031061517,"MEAN_MOTION_DOT":7.887e-5,"MEAN_MOTION_DDOT":0},{"OBJECT_NAME":"WT 1B","OBJECT_ID":"2019-032G","EPOCH":"2026-03-09T21:42:21.881088","MEAN_MOTION":15.25021485,"ECCENTRICITY":0.0008099,"INCLINATION":44.9738,"RA_OF_ASC_NODE":242.0209,"ARG_OF_PERICENTER":49.7728,"MEAN_ANOMALY":310.3861,"EPHEMERIS_TYPE":0,"CLASSIFICATION_TYPE":"U","NORAD_CAT_ID":44316,"ELEMENT_SET_NO":999,"REV_AT_EPOCH":37191,"BSTAR":0.00065022477,"MEAN_MOTION_DOT":0.00016297,"MEAN_MOTION_DDOT":0}]
